ONEWEB-0210             
1 48787U 21045W   25150.88792659  .00000131  00000+0  31307-3 0  9994
2 48787  87.9041 335.3760 0001228 109.2276 250.8987 13.15546759194056
ONEWEB-0214             
1 48788U 21045X   25150.89743271  .00000070  00000+0  15243-3 0  9995
2 48788  87.9042 335.3633 0001330  95.8056 264.3226 13.15546884194029
ONEWEB-0221             
1 48789U 21045Y   25150.90378396  .00000028  00000+0  39617-4 0  9995
2 48789  87.9045 335.3896 0001884  99.1490 260.9854 13.15548053194116
ONEWEB-0213             
1 48790U 21045Z   25150.89267953  .00000118  00000+0  27926-3 0  9990
2 48790  87.9043 335.3995 0001655  99.6258 260.5059 13.15547144194178
ONEWEB-0212             
1 48791U 21045AA  25150.94577844  .00000058  00000+0  11895-3 0  9991
2 48791  87.9034 335.3746 0001850  92.0740 268.0602 13.15550164194176
ONEWEB-0227             
1 48792U 21045AB  25150.94497469  .00000055  00000+0  11296-3 0  9998
2 48792  87.9041 335.3904 0001806  96.5554 263.5782 13.15547021194126
ONEWEB-0226             
1 48793U 21045AC  25150.93864000 -.00000032  00000+0 -11953-3 0  9994
2 48793  87.9041 335.3959 0001483  99.6341 260.4957 13.15549485194098
ONEWEB-0224             
1 48794U 21045AD  25150.90218652  .00000051  00000+0  10110-3 0  9991
2 48794  87.9048 335.4389 0002595 107.4570 252.6844 13.15547033194018
